IXPE                    
1 49954U 21121A   24087.58334491  .00010143  00000+0  78676-3 0  9991
2 49954   0.2299 278.9457 0009371 146.2423  73.5050 14.97041639  5592
